NORAD_CAT_ID,OBJECT_NAME,OBJECT_TYPE,EPOCH,MEAN_MOTION,ECCENTRICITY,INCLINATION,RA_OF_ASC_NODE,ARG_OF_PERICENTER,MEAN_ANOMALY,BSTAR,MEAN_MOTION_DOT,MEAN_MOTION_DDOT,TLE_LINE0,TLE_LINE1,TLE_LINE2,SEMIMAJOR_AXIS,PERIOD,APOGEE,PERIGEE,DECAYED
53253.0,STARLINK-4133,PAYLOAD,2024-07-03 22:02:02,15.08834389,0.0001373,53.2175,69.4509,95.9993,264.1156,8.7838e-05,1.11e-05,0.0,0 STARLINK-4133,1 53253U 22086M   24185.91808937  .00001110  00000-0  87838-4 0  9992,2 53253  53.2175  69.4509 0001373  95.9993 264.1156 15.08834389108401,6917.898,95.438,540.712,538.813,0.0
53253.0,STARLINK-4133,PAYLOAD,2024-07-04 09:09:44,15.08837279,0.0001377,53.2162,67.3664,78.9218,281.1929,9.274e-05,1.188e-05,0.0,0 STARLINK-4133,1 53253U 22086M   24186.38176877  .00001188  00000-0  92740-4 0  9998,2 53253  53.2162  67.3664 0001377  78.9218 281.1929 15.08837279108476,6917.889,95.438,540.706,538.801,0.0
53253.0,STARLINK-4133,PAYLOAD,2024-07-04 21:52:49,15.0884237,0.000136,53.2169,64.9871,84.7685,275.3463,4.1196e-05,3.68e-06,0.0,0 STARLINK-4133,1 53253U 22086M   24186.91168873  .00000368  00000-0  41196-4 0  9992,2 53253  53.2169  64.9871 0001360  84.7685 275.3463 15.08842370108556,6917.873,95.437,540.679,538.797,0.0
53253.0,STARLINK-4133,PAYLOAD,2024-07-05 01:03:36,15.08843202,0.0001324,53.2168,64.3922,82.7836,277.3307,6.601e-05,7.63e-06,0.0,0 STARLINK-4133,1 53253U 22086M   24187.04416726  .00000763  00000-0  66010-4 0  9991,2 53253  53.2168  64.3922 0001324  82.7836 277.3307 15.08843202108398,6917.871,95.437,540.652,538.82,0.0
53253.0,STARLINK-4133,PAYLOAD,2024-07-05 09:00:31,15.0884237,0.0001137,53.2161,62.9078,91.5397,268.5725,6.1806e-05,6.96e-06,0.0,0 STARLINK-4133,1 53253U 22086M   24187.37536676  .00000696  00000-0  61806-4 0  9997,2 53253  53.2161  62.9078 0001137  91.5397 268.5725 15.08842370108626,6917.873,95.437,540.525,538.952,0.0
53253.0,STARLINK-4133,PAYLOAD,2024-07-05 21:43:36,15.08840759,0.000122,53.2157,60.5268,89.2111,270.9021,0.00012767,1.745e-05,0.0,0 STARLINK-4133,1 53253U 22086M   24187.90528730  .00001745  00000-0  12767-3 0  9995,2 53253  53.2157  60.5268 0001220  89.2111 270.9021 15.08840759108701,6917.878,95.438,540.587,538.899,0.0
53253.0,STARLINK-4133,PAYLOAD,2024-07-06 08:51:18,15.08842236,0.0001141,53.2164,58.4438,94.2683,265.844,5.0515e-05,5.16e-06,0.0,0 STARLINK-4133,1 53253U 22086M   24188.36896616  .00000516  00000-0  50515-4 0  9996,2 53253  53.2164  58.4438 0001141  94.2683 265.8440 15.08842236108593,6917.874,95.437,540.528,538.949,0.0
53253.0,STARLINK-4133,PAYLOAD,2024-07-06 21:34:24,15.08839337,0.000104,53.2161,56.067,106.9154,253.1952,-2.4288e-05,-6.74e-06,0.0,0 STARLINK-4133,1 53253U 22086M   24188.89888982 -.00000674  00000-0 -24288-4 0  9996,2 53253  53.2161  56.0670 0001040 106.9154 253.1952 15.08839337108859,6917.882,95.438,540.467,539.028,0.0
53253.0,STARLINK-4133,PAYLOAD,2024-07-07 08:42:05,15.08841593,0.0001029,53.2167,53.9853,94.0677,266.0433,-7.2732e-06,-4.04e-06,0.0,0 STARLINK-4133,1 53253U 22086M   24189.36256779 -.00000404  00000-0 -72732-5 0  9991,2 53253  53.2167  53.9853 0001029  94.0677 266.0433 15.08841593108920,6917.876,95.437,540.452,539.029,0.0
53253.0,STARLINK-4133,PAYLOAD,2024-07-07 21:25:10,15.0884627,0.0001209,53.2175,51.6065,94.4511,265.6619,-1.29e-05,-4.93e-06,0.0,0 STARLINK-4133,1 53253U 22086M   24189.89248648 -.00000493  00000-0 -12900-4 0  9993,2 53253  53.2175  51.6065 0001209  94.4511 265.6619 15.08846270108827,6917.861,95.437,540.563,538.89,0.0
53253.0,STARLINK-4133,PAYLOAD,2024-07-08 21:15:57,15.08839665,0.0001213,53.2174,47.1465,91.3314,268.7817,9.9173e-05,1.291e-05,0.0,0 STARLINK-4133,1 53253U 22086M   24190.88608773  .00001291  00000-0  99173-4 0  9995,2 53253  53.2174  47.1465 0001213  91.3314 268.7817 15.08839665108972,6917.881,95.438,540.586,538.907,0.0
53253.0,STARLINK-4133,PAYLOAD,2024-07-09 00:26:44,15.08842522,0.0001216,53.2174,46.5515,90.8806,269.2326,9.0107e-05,1.147e-05,0.0,0 STARLINK-4133,1 53253U 22086M   24191.01856610  .00001147  00000-0  90107-4 0  9994,2 53253  53.2174  46.5515 0001216  90.8806 269.2326 15.08842522109174,6917.873,95.437,540.579,538.896,0.0
53253.0,STARLINK-4133,PAYLOAD,2024-07-09 19:31:22,15.08834269,0.0001304,53.2182,42.982,89.5997,270.5145,1.262e-05,-8.7e-07,0.0,0 STARLINK-4133,1 53253U 22086M   24191.81345482 -.00000087  00000-0  12620-4 0  9999,2 53253  53.2182  42.9820 0001304  89.5997 270.5145 15.08834269109113,6917.898,95.438,540.665,538.861,0.0
53253.0,STARLINK-4133,PAYLOAD,2024-07-10 13:00:36,15.08838093,0.0001355,53.2172,39.7121,97.5747,262.5399,1.0466e-05,-1.21e-06,0.0,0 STARLINK-4133,1 53253U 22086M   24192.54209407 -.00000121  00000-0  10466-4 0  9991,2 53253  53.2172  39.7121 0001355  97.5747 262.5399 15.08838093109401,6917.886,95.438,540.689,538.814,0.0
53253.0,STARLINK-4133,PAYLOAD,2024-07-11 12:51:23,15.08838107,0.0001263,53.2179,35.2531,90.5586,269.5551,9.1807e-05,1.173e-05,0.0,0 STARLINK-4133,1 53253U 22086M   24193.53569260  .00001173  00000-0  91807-4 0  9992,2 53253  53.2179  35.2531 0001263  90.5586 269.5551 15.08838107109555,6917.886,95.438,540.625,538.877,0.0
53253.0,STARLINK-4133,PAYLOAD,2024-07-12 06:20:38,15.08839165,0.0001481,53.2217,31.9786,79.8849,280.231,2.6549e-05,1.35e-06,0.0,0 STARLINK-4133,1 53253U 22086M   24194.26433643  .00000135  00000-0  26549-4 0  9996,2 53253  53.2217  31.9786 0001481  79.8849 280.2310 15.08839165109667,6917.883,95.438,540.772,538.723,0.0
53253.0,STARLINK-4133,PAYLOAD,2024-07-12 20:39:07,15.08837344,0.0001446,53.2186,29.3039,84.4962,275.6195,3.7859e-05,3.15e-06,0.0,0 STARLINK-4133,1 53253U 22086M   24194.86049794  .00000315  00000-0  37859-4 0  9998,2 53253  53.2186  29.3039 0001446  84.4962 275.6195 15.08837344109579,6917.889,95.438,540.754,538.753,0.0
53253.0,STARLINK-4133,PAYLOAD,2024-07-12 22:14:29,15.08839516,0.0001371,53.2181,29.0066,96.5804,263.5344,4.9339e-05,4.97e-06,0.0,0 STARLINK-4133,1 53253U 22086M   24194.92673544  .00000497  00000-0  49339-4 0  9998,2 53253  53.2181  29.0066 0001371  96.5804 263.5344 15.08839516109763,6917.882,95.438,540.695,538.798,0.0
53253.0,STARLINK-4133,PAYLOAD,2024-07-13 12:32:58,15.08840144,0.0001311,53.2181,26.3302,89.3918,270.7224,2.5583e-06,-2.47e-06,0.0,0 STARLINK-4133,1 53253U 22086M   24195.52289787 -.00000247  00000-0  25583-5 0  9997,2 53253  53.2181  26.3302 0001311  89.3918 270.7224 15.08840144109852,6917.88,95.438,540.652,538.838,0.0
53253.0,STARLINK-4133,PAYLOAD,2024-07-13 22:05:16,15.08846339,0.0001205,53.2174,24.5464,90.1603,269.9527,7.3703e-05,8.86e-06,0.0,0 STARLINK-4133,1 53253U 22086M   24195.92033151  .00000886  00000-0  73703-4 0  9997,2 53253  53.2174  24.5464 0001205  90.1603 269.9527 15.08846339109911,6917.861,95.437,540.56,538.892,0.0
53253.0,STARLINK-4133,PAYLOAD,2024-07-14 06:02:12,15.08839068,0.0001293,53.2174,23.0597,88.2714,271.8426,0.00014756,2.061e-05,0.0,0 STARLINK-4133,1 53253U 22086M   24196.25153470  .00002061  00000-0  14756-3 0  9990,2 53253  53.2174  23.0597 0001293  88.2714 271.8426 15.08839068109786,6917.883,95.438,540.643,538.854,0.0
53253.0,STARLINK-4133,PAYLOAD,2024-07-14 18:45:17,15.08844237,0.000133,53.2171,20.68,86.8097,273.3048,0.00014915,2.087e-05,0.0,0 STARLINK-4133,1 53253U 22086M   24196.78145091  .00002087  00000-0  14915-3 0  9993,2 53253  53.2171  20.6800 0001330  86.8097 273.3048 15.08844237110045,6917.867,95.437,540.653,538.812,0.0
53253.0,STARLINK-4133,PAYLOAD,2024-07-15 12:14:32,15.08831118,0.0001419,53.2182,17.4096,89.646,270.4695,0.00014223,1.976e-05,0.0,0 STARLINK-4133,1 53253U 22086M   24197.51009940  .00001976  00000-0  14223-3 0  9995,2 53253  53.2182  17.4096 0001419  89.6460 270.4695 15.08831118109971,6917.908,95.438,540.754,538.791,0.0
53253.0,STARLINK-4133,PAYLOAD,2024-07-15 18:36:04,15.08836323,0.0001106,53.2185,16.2183,95.7653,264.3465,0.0001204,1.629e-05,0.0,0 STARLINK-4133,1 53253U 22086M   24197.77505488  .00001629  00000-0  12040-3 0  9991,2 53253  53.2185  16.2183 0001106  95.7653 264.3465 15.08836323110199,6917.892,95.438,540.522,538.992,0.0
53253.0,STARLINK-4133,PAYLOAD,2024-07-16 18:26:51,15.08840288,0.0001467,53.219,11.7605,95.4178,264.6981,2.4863e-05,1.08e-06,0.0,0 STARLINK-4133,1 53253U 22086M   24198.76865365  .00000108  00000-0  24863-4 0  9992,2 53253  53.2190  11.7605 0001467  95.4178 264.6981 15.08840288110161,6917.88,95.438,540.759,538.73,0.0
53253.0,STARLINK-4133,PAYLOAD,2024-07-17 11:56:06,15.08833533,0.0001456,53.2187,8.4894,95.6282,264.4876,5.4589e-06,-2.01e-06,0.0,0 STARLINK-4133,1 53253U 22086M   24199.49730095 -.00000201  00000-0  54589-5 0  9998,2 53253  53.2187   8.4894 0001456  95.6282 264.4876 15.08833533110274,6917.9,95.438,540.772,538.758,0.0
53253.0,STARLINK-4133,PAYLOAD,2024-07-17 16:42:16,15.08836027,0.0001496,53.219,7.5979,95.0146,265.1017,3.9401e-05,3.39e-06,0.0,0 STARLINK-4133,1 53253U 22086M   24199.69601912  .00000339  00000-0  39401-4 0  9991,2 53253  53.2190   7.5979 0001496  95.0146 265.1017 15.08836027110488,6917.893,95.438,540.792,538.723,0.0
53253.0,STARLINK-4133,PAYLOAD,2024-07-18 03:49:58,15.08833139,0.0001441,53.2196,5.5171,95.3178,264.7978,-4.2544e-06,-3.56e-06,0.0,0 STARLINK-4133,1 53253U 22086M   24200.15970386 -.00000356  00000-0 -42544-5 0  9993,2 53253  53.2196   5.5171 0001441  95.3178 264.7978 15.08833139110554,6917.901,95.438,540.763,538.769,0.0
53253.0,STARLINK-4133,PAYLOAD,2024-07-18 18:08:26,15.08834997,0.0001458,53.2195,2.842,101.5919,258.5237,3.5231e-06,-2.32e-06,0.0,0 STARLINK-4133,1 53253U 22086M   24200.75586603 -.00000232  00000-0  35231-5 0  9991,2 53253  53.2195   2.8420 0001458 101.5919 258.5237 15.08834997110463,6917.896,95.438,540.769,538.752,0.0
53253.0,STARLINK-4133,PAYLOAD,2024-07-19 14:48:27,15.08841094,0.0001485,53.2198,358.9758,101.2765,258.8394,0.00011685,1.572e-05,0.0,0 STARLINK-4133,1 53253U 22086M   24201.61698032  .00001572  00000-0  11685-3 0  9999,2 53253  53.2198 358.9758 0001485 101.2765 258.8394 15.08841094110778,6917.877,95.437,540.769,538.715,0.0
